{"fetched_at":"2026-07-08T17:59:28.433Z","source":"https://celestrak.org/NORAD/elements/gp.php?GROUP=spire&FORMAT=JSON","constellation":"spire","records":[{"OBJECT_NAME":"LEMUR-2-MYRA","OBJECT_ID":"2025-276EC","EPOCH":"2026-07-08T11:14:05.025408","CLASSIFICATION_TYPE":"U","MEAN_MOTION":15.00537407,"ECCENTRICITY":0.0018539,"INCLINATION":97.5214,"RA_OF_ASC_NODE":259.6537,"ARG_OF_PERICENTER":74.6682,"MEAN_ANOMALY":285.6589,"EPHEMERIS_TYPE":0,"NORAD_CAT_ID":66787,"ELEMENT_SET_NO":999,"REV_AT_EPOCH":3340,"BSTAR":0.00029914,"MEAN_MOTION_DOT":0.00003728,"MEAN_MOTION_DDOT":0},{"OBJECT_NAME":"LEMUR-2 FIKRETDENGIZ","OBJECT_ID":"2026-004A","EPOCH":"2026-07-08T10:41:27.591072","CLASSIFICATION_TYPE":"U","MEAN_MOTION":14.88484569,"ECCENTRICITY":0.0010454,"INCLINATION":97.8025,"RA_OF_ASC_NODE":187.6788,"ARG_OF_PERICENTER":74.6204,"MEAN_ANOMALY":285.6167,"EPHEMERIS_TYPE":0,"NORAD_CAT_ID":67363,"ELEMENT_SET_NO":999,"REV_AT_EPOCH":2644,"BSTAR":0.00021745,"MEAN_MOTION_DOT":0.00001967,"MEAN_MOTION_DDOT":0},{"OBJECT_NAME":"TWILIGHT-1 OBJECT B","OBJECT_ID":"2026-004B","EPOCH":"2026-07-08T06:39:44.462016","CLASSIFICATION_TYPE":"U","MEAN_MOTION":14.87777388,"ECCENTRICITY":0.0010097,"INCLINATION":97.8068,"RA_OF_ASC_NODE":187.5184,"ARG_OF_PERICENTER":65.6176,"MEAN_ANOMALY":294.6093,"EPHEMERIS_TYPE":0,"NORAD_CAT_ID":67364,"ELEMENT_SET_NO":999,"REV_AT_EPOCH":2642,"BSTAR":0.00016411,"MEAN_MOTION_DOT":0.00001445,"MEAN_MOTION_DDOT":0},{"OBJECT_NAME":"LEMUR-2-MARIO-SOUSA","OBJECT_ID":"2026-004C","EPOCH":"2026-07-08T10:13:49.346112","CLASSIFICATION_TYPE":"U","MEAN_MOTION":14.88692272,"ECCENTRICITY":0.0010149,"INCLINATION":97.7999,"RA_OF_ASC_NODE":187.6551,"ARG_OF_PERICENTER":75.7007,"MEAN_ANOMALY":284.5336,"EPHEMERIS_TYPE":0,"NORAD_CAT_ID":67365,"ELEMENT_SET_NO":999,"REV_AT_EPOCH":2645,"BSTAR":0.00028573,"MEAN_MOTION_DOT":0.00002615,"MEAN_MOTION_DDOT":0},{"OBJECT_NAME":"LEMUR-2-SONNENBLUME","OBJECT_ID":"2026-004E","EPOCH":"2026-07-08T10:16:10.870176","CLASSIFICATION_TYPE":"U","MEAN_MOTION":14.88431677,"ECCENTRICITY":0.0009679,"INCLINATION":97.7993,"RA_OF_ASC_NODE":187.6326,"ARG_OF_PERICENTER":77.0049,"MEAN_ANOMALY":283.2248,"EPHEMERIS_TYPE":0,"NORAD_CAT_ID":67367,"ELEMENT_SET_NO":999,"REV_AT_EPOCH":2645,"BSTAR":0.00019363,"MEAN_MOTION_DOT":0.00001743,"MEAN_MOTION_DDOT":0},{"OBJECT_NAME":"LEMUR-2-WOBLER","OBJECT_ID":"2026-004F","EPOCH":"2026-07-08T10:02:19.925952","CLASSIFICATION_TYPE":"U","MEAN_MOTION":14.88667919,"ECCENTRICITY":0.0009886,"INCLINATION":97.8047,"RA_OF_ASC_NODE":187.7666,"ARG_OF_PERICENTER":69.2439,"MEAN_ANOMALY":290.9837,"EPHEMERIS_TYPE":0,"NORAD_CAT_ID":67368,"ELEMENT_SET_NO":999,"REV_AT_EPOCH":2645,"BSTAR":0.00028,"MEAN_MOTION_DOT":0.0000256,"MEAN_MOTION_DDOT":0},{"OBJECT_NAME":"LEMUR-2-GRAM-E-SUE","OBJECT_ID":"2026-004H","EPOCH":"2026-07-07T22:32:44.744928","CLASSIFICATION_TYPE":"U","MEAN_MOTION":14.88567504,"ECCENTRICITY":0.0008837,"INCLINATION":97.7979,"RA_OF_ASC_NODE":187.1679,"ARG_OF_PERICENTER":80.8974,"MEAN_ANOMALY":279.3242,"EPHEMERIS_TYPE":0,"NORAD_CAT_ID":67370,"ELEMENT_SET_NO":999,"REV_AT_EPOCH":2638,"BSTAR":0.00020232,"MEAN_MOTION_DOT":0.00001829,"MEAN_MOTION_DDOT":0},{"OBJECT_NAME":"LEMUR-2-KATIE","OBJECT_ID":"2026-004AA","EPOCH":"2026-07-08T07:22:28.717248","CLASSIFICATION_TYPE":"U","MEAN_MOTION":14.90210932,"ECCENTRICITY":0.0004033,"INCLINATION":97.8044,"RA_OF_ASC_NODE":188.0585,"ARG_OF_PERICENTER":49.127,"MEAN_ANOMALY":311.0297,"EPHEMERIS_TYPE":0,"NORAD_CAT_ID":67387,"ELEMENT_SET_NO":999,"REV_AT_EPOCH":2645,"BSTAR":0.00024116,"MEAN_MOTION_DOT":0.00002282,"MEAN_MOTION_DDOT":0},{"OBJECT_NAME":"LEMUR-2-HCS-BAZUS","OBJECT_ID":"2026-004AB","EPOCH":"2026-07-08T10:33:36.637632","CLASSIFICATION_TYPE":"U","MEAN_MOTION":14.90238828,"ECCENTRICITY":0.0003474,"INCLINATION":97.8032,"RA_OF_ASC_NODE":188.1688,"ARG_OF_PERICENTER":49.1715,"MEAN_ANOMALY":310.9803,"EPHEMERIS_TYPE":0,"NORAD_CAT_ID":67388,"ELEMENT_SET_NO":999,"REV_AT_EPOCH":2647,"BSTAR":0.00014331,"MEAN_MOTION_DOT":0.00001335,"MEAN_MOTION_DDOT":0}]}
