LEMUR-2-MYRA            
1 66787U 25276EC  26189.46811372  .00003728  00000+0  29914-3 0  9991
2 66787  97.5214 259.6537 0018539  74.6682 285.6589 15.00537407 33405
LEMUR-2 FIKRETDENGIZ    
1 67363U 26004A   26189.44545823  .00001967  00000+0  21745-3 0  9992
2 67363  97.8025 187.6788 0010454  74.6204 285.6167 14.88484569 26448
TWILIGHT-1 OBJECT B     
1 67364U 26004B   26189.27759794  .00001445  00000+0  16411-3 0  9993
2 67364  97.8068 187.5184 0010097  65.6176 294.6093 14.87777388 26425
LEMUR-2-MARIO-SOUSA     
1 67365U 26004C   26189.42626558  .00002615  00000+0  28573-3 0  9994
2 67365  97.7999 187.6551 0010149  75.7007 284.5336 14.88692272 26450
LEMUR-2-SONNENBLUME     
1 67367U 26004E   26189.42790359  .00001743  00000+0  19363-3 0  9995
2 67367  97.7993 187.6326 0009679  77.0049 283.2248 14.88431677 26451
LEMUR-2-WOBLER          
1 67368U 26004F   26189.41828618  .00002560  00000+0  28000-3 0  9991
2 67368  97.8047 187.7666 0009886  69.2439 290.9837 14.88667919 26456
LEMUR-2-GRAM-E-SUE      
1 67370U 26004H   26188.93940677  .00001829  00000+0  20232-3 0  9996
2 67370  97.7979 187.1679 0008837  80.8974 279.3242 14.88567504 26380
LEMUR-2-KATIE           
1 67387U 26004AA  26189.30727682  .00002282  00000+0  24116-3 0  9994
2 67387  97.8044 188.0585 0004033  49.1270 311.0297 14.90210932 26454
LEMUR-2-HCS-BAZUS       
1 67388U 26004AB  26189.44000738  .00001335  00000+0  14331-3 0  9992
2 67388  97.8032 188.1688 0003474  49.1715 310.9803 14.90238828 26476
